[{"OBJECT_NAME":"LEMUR-1","OBJECT_ID":"2014-033AL","EPOCH":"2026-03-28T21:52:37.968384","MEAN_MOTION":14.84893385,"ECCENTRICITY":0.00480551,"INCLINATION":97.7751,"RA_OF_ASC_NODE":239.5685,"ARG_OF_PERICENTER":343.06,"MEAN_ANOMALY":16.9008,"EPHEMERIS_TYPE":0,"CLASSIFICATION_TYPE":"U","NORAD_CAT_ID":40044,"ELEMENT_SET_NO":999,"REV_AT_EPOCH":63355,"BSTAR":0.00029836372,"MEAN_MOTION_DOT":2.535e-5,"MEAN_MOTION_DDOT":0},{"OBJECT_NAME":"LEMUR-2-GREENBERG","OBJECT_ID":"2017-042N","EPOCH":"2026-03-28T18:37:59.702880","MEAN_MOTION":15.28701449,"ECCENTRICITY":0.00080842,"INCLINATION":97.3793,"RA_OF_ASC_NODE":268.9347,"ARG_OF_PERICENTER":290.6465,"MEAN_ANOMALY":69.3908,"EPHEMERIS_TYPE":0,"CLASSIFICATION_TYPE":"U","NORAD_CAT_ID":42837,"ELEMENT_SET_NO":999,"REV_AT_EPOCH":47609,"BSTAR":0.00077064013,"MEAN_MOTION_DOT":0.00021489,"MEAN_MOTION_DDOT":0},{"OBJECT_NAME":"LEMUR-2-ANDIS","OBJECT_ID":"2017-042P","EPOCH":"2026-03-28T10:45:14.059296","MEAN_MOTION":15.31443074,"ECCENTRICITY":0.00084234,"INCLINATION":97.3673,"RA_OF_ASC_NODE":268.5528,"ARG_OF_PERICENTER":292.7664,"MEAN_ANOMALY":67.2687,"EPHEMERIS_TYPE":0,"CLASSIFICATION_TYPE":"U","NORAD_CAT_ID":42838,"ELEMENT_SET_NO":999,"REV_AT_EPOCH":47608,"BSTAR":0.00086872743,"MEAN_MOTION_DOT":0.00026391,"MEAN_MOTION_DDOT":0},{"OBJECT_NAME":"LEMUR-2-MONSON","OBJECT_ID":"2017-042Q","EPOCH":"2026-03-28T11:40:35.640768","MEAN_MOTION":15.25633162,"ECCENTRICITY":0.00057274,"INCLINATION":97.405,"RA_OF_ASC_NODE":268.7286,"ARG_OF_PERICENTER":277.5278,"MEAN_ANOMALY":82.5309,"EPHEMERIS_TYPE":0,"CLASSIFICATION_TYPE":"U","NORAD_CAT_ID":42839,"ELEMENT_SET_NO":999,"REV_AT_EPOCH":47585,"BSTAR":0.00070726516,"MEAN_MOTION_DOT":0.00017948,"MEAN_MOTION_DDOT":0},{"OBJECT_NAME":"LEMUR-2-FURIAUS","OBJECT_ID":"2017-042R","EPOCH":"2026-03-28T21:40:12.154944","MEAN_MOTION":15.27185951,"ECCENTRICITY":0.00068045,"INCLINATION":97.3756,"RA_OF_ASC_NODE":267.2092,"ARG_OF_PERICENTER":348.8795,"MEAN_ANOMALY":11.2293,"EPHEMERIS_TYPE":0,"CLASSIFICATION_TYPE":"U","NORAD_CAT_ID":42840,"ELEMENT_SET_NO":999,"REV_AT_EPOCH":47594,"BSTAR":0.0010118571,"MEAN_MOTION_DOT":0.00026978,"MEAN_MOTION_DDOT":0},{"OBJECT_NAME":"LEMUR-2-PETERG","OBJECT_ID":"2017-042S","EPOCH":"2026-03-28T18:35:21.793056","MEAN_MOTION":15.30554708,"ECCENTRICITY":0.00032401,"INCLINATION":97.3989,"RA_OF_ASC_NODE":272.8737,"ARG_OF_PERICENTER":257.6169,"MEAN_ANOMALY":102.4709,"EPHEMERIS_TYPE":0,"CLASSIFICATION_TYPE":"U","NORAD_CAT_ID":42841,"ELEMENT_SET_NO":999,"REV_AT_EPOCH":47612,"BSTAR":0.00092468158,"MEAN_MOTION_DOT":0.00027311,"MEAN_MOTION_DDOT":0},{"OBJECT_NAME":"LEMUR-2-DEMBITZ","OBJECT_ID":"2017-042T","EPOCH":"2026-03-28T11:23:43.502784","MEAN_MOTION":15.27665474,"ECCENTRICITY":0.00059081,"INCLINATION":97.3816,"RA_OF_ASC_NODE":269.7237,"ARG_OF_PERICENTER":305.399,"MEAN_ANOMALY":54.6697,"EPHEMERIS_TYPE":0,"CLASSIFICATION_TYPE":"U","NORAD_CAT_ID":42842,"ELEMENT_SET_NO":999,"REV_AT_EPOCH":47601,"BSTAR":0.00082801603,"MEAN_MOTION_DOT":0.00022369,"MEAN_MOTION_DDOT":0},{"OBJECT_NAME":"LEMUR-2-ZACHARY","OBJECT_ID":"2017-042W","EPOCH":"2026-03-28T18:50:15.728928","MEAN_MOTION":15.43666106,"ECCENTRICITY":0.00031182,"INCLINATION":97.3657,"RA_OF_ASC_NODE":278.0871,"ARG_OF_PERICENTER":301.1642,"MEAN_ANOMALY":58.93,"EPHEMERIS_TYPE":0,"CLASSIFICATION_TYPE":"U","NORAD_CAT_ID":42845,"ELEMENT_SET_NO":999,"REV_AT_EPOCH":47677,"BSTAR":0.0010475152,"MEAN_MOTION_DOT":0.00047352,"MEAN_MOTION_DDOT":0},{"OBJECT_NAME":"LEMUR-2-JIN-LUEN","OBJECT_ID":"2018-014C","EPOCH":"2026-03-28T19:00:14.090400","MEAN_MOTION":15.92980067,"ECCENTRICITY":0.00098685,"INCLINATION":97.5392,"RA_OF_ASC_NODE":20.0114,"ARG_OF_PERICENTER":141.836,"MEAN_ANOMALY":218.3615,"EPHEMERIS_TYPE":0,"CLASSIFICATION_TYPE":"U","NORAD_CAT_ID":43182,"ELEMENT_SET_NO":999,"REV_AT_EPOCH":44849,"BSTAR":0.0018991205,"MEAN_MOTION_DOT":0.00658614,"MEAN_MOTION_DDOT":0.00017900163},{"OBJECT_NAME":"LEMUR-2-KADI","OBJECT_ID":"2018-014E","EPOCH":"2026-03-28T18:33:58.235616","MEAN_MOTION":15.6820586,"ECCENTRICITY":0.0005144,"INCLINATION":97.464,"RA_OF_ASC_NODE":13.6075,"ARG_OF_PERICENTER":130.977,"MEAN_ANOMALY":229.1937,"EPHEMERIS_TYPE":0,"CLASSIFICATION_TYPE":"U","NORAD_CAT_ID":43184,"ELEMENT_SET_NO":999,"REV_AT_EPOCH":44837,"BSTAR":0.0011976439,"MEAN_MOTION_DOT":0.00135429,"MEAN_MOTION_DDOT":0},{"OBJECT_NAME":"LEMUR-2-AMANDA-SVANTE","OBJECT_ID":"2021-034B","EPOCH":"2026-03-28T18:06:51.613056","MEAN_MOTION":15.2960654,"ECCENTRICITY":0.00041038,"INCLINATION":97.5808,"RA_OF_ASC_NODE":164.2007,"ARG_OF_PERICENTER":156.8091,"MEAN_ANOMALY":203.3335,"EPHEMERIS_TYPE":0,"CLASSIFICATION_TYPE":"U","NORAD_CAT_ID":48269,"ELEMENT_SET_NO":999,"REV_AT_EPOCH":26874,"BSTAR":0.0012391029,"MEAN_MOTION_DOT":0.0003561,"MEAN_MOTION_DDOT":0},{"OBJECT_NAME":"LEMUR-2-SPECIAL-K","OBJECT_ID":"2021-034F","EPOCH":"2026-03-28T19:12:26.479872","MEAN_MOTION":15.48286286,"ECCENTRICITY":0.0002277,"INCLINATION":97.5688,"RA_OF_ASC_NODE":169.9733,"ARG_OF_PERICENTER":193.1032,"MEAN_ANOMALY":167.0159,"EPHEMERIS_TYPE":0,"CLASSIFICATION_TYPE":"U","NORAD_CAT_ID":48273,"ELEMENT_SET_NO":999,"REV_AT_EPOCH":26919,"BSTAR":0.0016398624,"MEAN_MOTION_DOT":0.00087308,"MEAN_MOTION_DDOT":0},{"OBJECT_NAME":"LEMUR-2-EMBRIONOVIS","OBJECT_ID":"2023-084AQ","EPOCH":"2026-03-28T09:08:16.867392","MEAN_MOTION":15.35272678,"ECCENTRICITY":0.0008343,"INCLINATION":97.616,"RA_OF_ASC_NODE":228.6702,"ARG_OF_PERICENTER":237.0246,"MEAN_ANOMALY":123.0195,"EPHEMERIS_TYPE":0,"CLASSIFICATION_TYPE":"U","NORAD_CAT_ID":56970,"ELEMENT_SET_NO":999,"REV_AT_EPOCH":15527,"BSTAR":0.00055475347,"MEAN_MOTION_DOT":0.00018961,"MEAN_MOTION_DDOT":0},{"OBJECT_NAME":"LEMUR-2-MANO","OBJECT_ID":"2023-100E","EPOCH":"2026-03-28T20:00:41.486400","MEAN_MOTION":15.66866989,"ECCENTRICITY":0.00060254,"INCLINATION":99.4497,"RA_OF_ASC_NODE":116.8039,"ARG_OF_PERICENTER":191.3826,"MEAN_ANOMALY":168.7292,"EPHEMERIS_TYPE":0,"CLASSIFICATION_TYPE":"U","NORAD_CAT_ID":57390,"ELEMENT_SET_NO":999,"REV_AT_EPOCH":14947,"BSTAR":0.0019080595,"MEAN_MOTION_DOT":0.00206403,"MEAN_MOTION_DDOT":0},{"OBJECT_NAME":"LEMUR-2-DEVERILL-M-T","OBJECT_ID":"2023-100F","EPOCH":"2026-03-28T13:13:10.706304","MEAN_MOTION":15.35815032,"ECCENTRICITY":0.0005782,"INCLINATION":99.4563,"RA_OF_ASC_NODE":103.2922,"ARG_OF_PERICENTER":319.9079,"MEAN_ANOMALY":40.1731,"EPHEMERIS_TYPE":0,"CLASSIFICATION_TYPE":"U","NORAD_CAT_ID":57391,"ELEMENT_SET_NO":999,"REV_AT_EPOCH":14885,"BSTAR":0.0008898,"MEAN_MOTION_DOT":0.00031008,"MEAN_MOTION_DDOT":0},{"OBJECT_NAME":"LEMUR-2-BASS","OBJECT_ID":"2023-174D","EPOCH":"2026-03-28T19:07:27.411456","MEAN_MOTION":15.40466241,"ECCENTRICITY":0.00086506,"INCLINATION":97.3862,"RA_OF_ASC_NODE":171.5467,"ARG_OF_PERICENTER":102.7616,"MEAN_ANOMALY":257.4597,"EPHEMERIS_TYPE":0,"CLASSIFICATION_TYPE":"U","NORAD_CAT_ID":58259,"ELEMENT_SET_NO":999,"REV_AT_EPOCH":13297,"BSTAR":0.00050775307,"MEAN_MOTION_DOT":0.00020541,"MEAN_MOTION_DDOT":0}]
